{
"type": "FeatureCollection",
"features": [
{ "type": "Feature", "properties": { "Nom de référence": "Abbesses", "Nom": "Abbesses", "Ouverture": "1913-01-30", "Lignes": [ "Ligne 12" ], "Couleur": "#007852" }, "geometry": { "type": "Point", "coordinates": [ 2.338712812, 48.88441765 ] } },
{ "type": "Feature", "properties": { "Nom de référence": "Alésia", "Nom": "Alésia", "Ouverture": "1909-10-30", "Lignes": [ "Ligne 4" ], "Couleur": "#CF009E" }, "geometry": { "type": "Point", "coordinates": [ 2.326745674, 48.82839851 ] } },
{ "type": "Feature", "properties": { "Nom de référence": "Alexandre Dumas", "Nom": "Alexandre Dumas", "Ouverture": "1970-09-13", "Lignes": [ "Ligne 2" ], "Couleur": "#003CA6" }, "geometry": { "type": "Point", "coordinates": [ 2.394989816, 48.85617445 ] } },
{ "type": "Feature", "properties": { "Nom de référence": "Alma - Marceau", "Nom": "Alma - Marceau", "Ouverture": "1923-05-27", "Lignes": [ "Ligne 9" ], "Couleur": "#B6BD00" }, "geometry": { "type": "Point", "coordinates": [ 2.300234, 48.864904 ] } },
{ "type": "Feature", "properties": { "Nom de référence": "Anatole France", "Nom": "Anatole France", "Ouverture": "1937-09-24", "Lignes": [ "Ligne 3" ], "Couleur": "#837902" }, "geometry": { "type": "Point", "coordinates": [ 2.285536, 48.892022 ] } },
{ "type": "Feature", "properties": { "Nom de référence": "Anvers", "Nom": "Anvers", "Ouverture": "1902-10-07", "Lignes": [ "Ligne 2" ], "Couleur": "#003CA6" }, "geometry": { "type": "Point", "coordinates": [ 2.344848812, 48.88300713 ] } },
{ "type": "Feature", "properties": { "Nom de référence": "Argentine", "Nom": "Argentine", "Ouverture": "1948-05-25", "Lignes": [ "Ligne 1" ], "Couleur": "#FFCD00" }, "geometry": { "type": "Point", "coordinates": [ 2.289321664, 48.87553309 ] } },
{ "type": "Feature", "properties": { "Nom de référence": "Arts et Métiers", "Nom": "Arts et Métiers", "Ouverture": "1904-10-19", "Lignes": [ "Ligne 3", "Ligne 11" ], "Couleur": "D8D8B9" }, "geometry": { "type": "Point", "coordinates": [ 2.3561, 48.8655 ] } },
{ "type": "Feature", "properties": { "Nom de référence": "Assemblée nationale", "Nom": "Assemblée nationale", "Ouverture": "1989-06-30", "Lignes": [ "Ligne 12" ], "Couleur": "#007852" }, "geometry": { "type": "Point", "coordinates": [ 2.321130037, 48.86065457 ] } },
{ "type": "Feature", "properties": { "Nom de référence": "Aubervilliers - Pantin - Quatre Chemins", "Nom": "Aubervilliers - Pantin - Quatre Chemins", "Ouverture": "1979-10-04", "Lignes": [ "Ligne 7" ], "Couleur": "#FA9ABA" }, "geometry": { "type": "Point", "coordinates": [ 2.392495573, 48.90389694 ] } },
{ "type": "Feature", "properties": { "Nom de référence": "Avenue Émile-Zola", "Nom": "Avenue Émile-Zola", "Ouverture": "1937-03-01", "Lignes": [ "Ligne 10" ], "Couleur": "#C9910D" }, "geometry": { "type": "Point", "coordinates": [ 2.294511795, 48.84697701 ] } },
{ "type": "Feature", "properties": { "Nom de référence": "Avron", "Nom": "Avron", "Ouverture": "1903-04-02", "Lignes": [ "Ligne 2" ], "Couleur": "#003CA6" }, "geometry": { "type": "Point", "coordinates": [ 2.397862673, 48.85194019 ] } },
{ "type": "Feature", "properties": { "Nom de référence": "Balard", "Nom": "Balard", "Ouverture": "1937-07-27", "Lignes": [ "Ligne 8" ], "Couleur": "#E19BDF" }, "geometry": { "type": "Point", "coordinates": [ 2.278218327, 48.83627546 ] } },
{ "type": "Feature", "properties": { "Nom de référence": "Barbès - Rochechouart", "Nom": "Barbès - Rochechouart", "Ouverture": "1907-10-15", "Lignes": [ "Ligne 2", "Ligne 4" ], "Couleur": "D8D8B9" }, "geometry": { "type": "Point", "coordinates": [ 2.350516, 48.88364 ] } },
{ "type": "Feature", "properties": { "Nom de référence": "Basilique de Saint-Denis", "Nom": "Basilique de Saint-Denis", "Ouverture": "1998-05-25", "Lignes": [ "Ligne 13" ], "Couleur": "#6EC4E8" }, "geometry": { "type": "Point", "coordinates": [ 2.360845506, 48.93809957 ] } },
{ "type": "Feature", "properties": { "Nom de référence": "Bastille", "Nom": "Bastille", "Ouverture": "1900-07-19", "Lignes": [ "Ligne 1", "Ligne 5", "Ligne 8" ], "Couleur": "D8D8B9" }, "geometry": { "type": "Point", "coordinates": [ 2.369077, 48.853082 ] } },
{ "type": "Feature", "properties": { "Nom de référence": "Bel-Air", "Nom": "Bel-Air", "Ouverture": "1963-01-07", "Lignes": [ "Ligne 6" ], "Couleur": "#6ECA97" }, "geometry": { "type": "Point", "coordinates": [ 2.400912344, 48.8413443 ] } },
{ "type": "Feature", "properties": { "Nom de référence": "Belleville", "Nom": "Belleville", "Ouverture": "1903-01-31", "Lignes": [ "Ligne 2", "Ligne 11" ], "Couleur": "D8D8B9" }, "geometry": { "type": "Point", "coordinates": [ 2.376946807, 48.87208261 ] } },
{ "type": "Feature", "properties": { "Nom de référence": "Bérault", "Nom": "Bérault", "Ouverture": "1934-03-24", "Lignes": [ "Ligne 1" ], "Couleur": "#FFCD00" }, "geometry": { "type": "Point", "coordinates": [ 2.429238498, 48.84533424 ] } },
{ "type": "Feature", "properties": { "Nom de référence": "Bercy", "Nom": "Bercy", "Ouverture": "1909-03-01", "Lignes": [ "Ligne 6", "Ligne 14" ], "Couleur": "D8D8B9" }, "geometry": { "type": "Point", "coordinates": [ 2.379582969, 48.84042809 ] } },
{ "type": "Feature", "properties": { "Nom de référence": "Bibliothèque François-Mitterrand", "Nom": "Bibliothèque François-Mitterrand", "Ouverture": "1998-10-15", "Lignes": [ "Ligne 14" ], "Couleur": "#62259D" }, "geometry": { "type": "Point", "coordinates": [ 2.376092612, 48.82960597 ] } },
{ "type": "Feature", "properties": { "Nom de référence": "Billancourt", "Nom": "Billancourt", "Ouverture": "1934-02-03", "Lignes": [ "Ligne 9" ], "Couleur": "#B6BD00" }, "geometry": { "type": "Point", "coordinates": [ 2.238177359, 48.83208981 ] } },
{ "type": "Feature", "properties": { "Nom de référence": "Bir-Hakeim", "Nom": "Bir-Hakeim", "Ouverture": "1949-06-18", "Lignes": [ "Ligne 6" ], "Couleur": "#6ECA97" }, "geometry": { "type": "Point", "coordinates": [ 2.289332, 48.853917 ] } },
{ "type": "Feature", "properties": { "Nom de référence": "Blanche", "Nom": "Blanche", "Ouverture": "1902-10-21", "Lignes": [ "Ligne 2" ], "Couleur": "#003CA6" }, "geometry": { "type": "Point", "coordinates": [ 2.333703, 48.883459 ] } },
{ "type": "Feature", "properties": { "Nom de référence": "Bobigny - Pablo Picasso", "Nom": "Bobigny - Pablo Picasso", "Ouverture": "1985-04-25", "Lignes": [ "Ligne 5" ], "Couleur": "#FF7E2E" }, "geometry": { "type": "Point", "coordinates": [ 2.449994, 48.906538 ] } },
{ "type": "Feature", "properties": { "Nom de référence": "Bobigny - Pantin - Raymond Queneau", "Nom": "Bobigny - Pantin - Raymond Queneau", "Ouverture": "1985-04-25", "Lignes": [ "Ligne 5" ], "Couleur": "#FF7E2E" }, "geometry": { "type": "Point", "coordinates": [ 2.424928844, 48.89540875 ] } },
{ "type": "Feature", "properties": { "Nom de référence": "Boissière", "Nom": "Boissière", "Ouverture": "1900-10-02", "Lignes": [ "Ligne 6" ], "Couleur": "#6ECA97" }, "geometry": { "type": "Point", "coordinates": [ 2.290391922, 48.86738609 ] } },
{ "type": "Feature", "properties": { "Nom de référence": "Bolivar", "Nom": "Bolivar", "Ouverture": "1911-01-18", "Lignes": [ "Ligne 7bis" ], "Couleur": "#6ECA97" }, "geometry": { "type": "Point", "coordinates": [ 2.374921739, 48.88050244 ] } },
{ "type": "Feature", "properties": { "Nom de référence": "Bonne-Nouvelle", "Nom": "Bonne-Nouvelle", "Ouverture": "1931-05-05", "Lignes": [ "Ligne 8", "Ligne 9" ], "Couleur": "D8D8B9" }, "geometry": { "type": "Point", "coordinates": [ 2.348874807, 48.87063948 ] } },
{ "type": "Feature", "properties": { "Nom de référence": "Botzaris", "Nom": "Botzaris", "Ouverture": "1911-01-18", "Lignes": [ "Ligne 7bis" ], "Couleur": "#6ECA97" }, "geometry": { "type": "Point", "coordinates": [ 2.388040423, 48.87955169 ] } },
{ "type": "Feature", "properties": { "Nom de référence": "Boucicaut", "Nom": "Boucicaut", "Ouverture": "1937-07-27", "Lignes": [ "Ligne 8" ], "Couleur": "#E19BDF" }, "geometry": { "type": "Point", "coordinates": [ 2.287817, 48.841101 ] } },
{ "type": "Feature", "properties": { "Nom de référence": "Boulogne - Jean Jaurès", "Nom": "Boulogne - Jean Jaurès", "Ouverture": "1980-10-03", "Lignes": [ "Ligne 10" ], "Couleur": "#C9910D" }, "geometry": { "type": "Point", "coordinates": [ 2.238877416, 48.84227813 ] } },
{ "type": "Feature", "properties": { "Nom de référence": "Boulogne - Pont de Saint-Cloud", "Nom": "Boulogne - Pont de Saint-Cloud", "Ouverture": "1981-10-02", "Lignes": [ "Ligne 10" ], "Couleur": "#C9910D" }, "geometry": { "type": "Point", "coordinates": [ 2.228331, 48.840684 ] } },
{ "type": "Feature", "properties": { "Nom de référence": "Bourse", "Nom": "Bourse", "Ouverture": "1904-10-19", "Lignes": [ "Ligne 3" ], "Couleur": "#837902" }, "geometry": { "type": "Point", "coordinates": [ 2.341369987, 48.86873757 ] } },
{ "type": "Feature", "properties": { "Nom de référence": "Bréguet - Sabin", "Nom": "Bréguet - Sabin", "Ouverture": "1906-12-31", "Lignes": [ "Ligne 5" ], "Couleur": "#FF7E2E" }, "geometry": { "type": "Point", "coordinates": [ 2.370093763, 48.85613345 ] } },
{ "type": "Feature", "properties": { "Nom de référence": "Brochant", "Nom": "Brochant", "Ouverture": "1912-01-20", "Lignes": [ "Ligne 13" ], "Couleur": "#6EC4E8" }, "geometry": { "type": "Point", "coordinates": [ 2.31970042, 48.8908555 ] } },
{ "type": "Feature", "properties": { "Nom de référence": "Buttes Chaumont", "Nom": "Buttes Chaumont", "Ouverture": "1912-02-13", "Lignes": [ "Ligne 7bis" ], "Couleur": "#6ECA97" }, "geometry": { "type": "Point", "coordinates": [ 2.381772101, 48.87850037 ] } },
{ "type": "Feature", "properties": { "Nom de référence": "Buzenval", "Nom": "Buzenval", "Ouverture": "1933-12-10", "Lignes": [ "Ligne 9" ], "Couleur": "#B6BD00" }, "geometry": { "type": "Point", "coordinates": [ 2.402045, 48.851976 ] } },
{ "type": "Feature", "properties": { "Nom de référence": "Cadet", "Nom": "Cadet", "Ouverture": "1910-11-05", "Lignes": [ "Ligne 7" ], "Couleur": "#FA9ABA" }, "geometry": { "type": "Point", "coordinates": [ 2.344875634, 48.87613482 ] } },
{ "type": "Feature", "properties": { "Nom de référence": "Cambronne", "Nom": "Cambronne", "Ouverture": "1906-04-24", "Lignes": [ "Ligne 6" ], "Couleur": "#6ECA97" }, "geometry": { "type": "Point", "coordinates": [ 2.302936614, 48.84753654 ] } },
{ "type": "Feature", "properties": { "Nom de référence": "Campo-Formio", "Nom": "Campo-Formio", "Ouverture": "1906-06-06", "Lignes": [ "Ligne 5" ], "Couleur": "#FF7E2E" }, "geometry": { "type": "Point", "coordinates": [ 2.358128428, 48.83502241 ] } },
{ "type": "Feature", "properties": { "Nom de référence": "Cardinal Lemoine", "Nom": "Cardinal Lemoine", "Ouverture": "1931-04-26", "Lignes": [ "Ligne 10" ], "Couleur": "#C9910D" }, "geometry": { "type": "Point", "coordinates": [ 2.351202965, 48.8471394 ] } },
{ "type": "Feature", "properties": { "Nom de référence": "Carrefour Pleyel", "Nom": "Carrefour Pleyel", "Ouverture": "1952-06-30", "Lignes": [ "Ligne 13" ], "Couleur": "#6EC4E8" }, "geometry": { "type": "Point", "coordinates": [ 2.343926132, 48.91994192 ] } },
{ "type": "Feature", "properties": { "Nom de référence": "Censier - Daubenton", "Nom": "Censier - Daubenton", "Ouverture": "1930-02-15", "Lignes": [ "Ligne 7" ], "Couleur": "#FA9ABA" }, "geometry": { "type": "Point", "coordinates": [ 2.351774, 48.840597 ] } },
{ "type": "Feature", "properties": { "Nom de référence": "Champs-Élysées - Clemenceau", "Nom": "Champs-Élysées - Clemenceau", "Ouverture": "1931-05-20", "Lignes": [ "Ligne 1", "Ligne 13" ], "Couleur": "D8D8B9" }, "geometry": { "type": "Point", "coordinates": [ 2.31395945, 48.86741142 ] } },
{ "type": "Feature", "properties": { "Nom de référence": "Chardon-Lagache", "Nom": "Chardon-Lagache", "Ouverture": "1913-09-30", "Lignes": [ "Ligne 10" ], "Couleur": "#C9910D" }, "geometry": { "type": "Point", "coordinates": [ 2.26621449, 48.84513775 ] } },
{ "type": "Feature", "properties": { "Nom de référence": "Charenton - Écoles", "Nom": "Charenton - Écoles", "Ouverture": "1942-10-05", "Lignes": [ "Ligne 8" ], "Couleur": "#E19BDF" }, "geometry": { "type": "Point", "coordinates": [ 2.41386205, 48.82148972 ] } },
{ "type": "Feature", "properties": { "Nom de référence": "Charles de Gaulle - Étoile", "Nom": "Charles de Gaulle - Étoile", "Ouverture": "1970-11-13", "Lignes": [ "Ligne 1", "Ligne 2", "Ligne 6" ], "Couleur": "D8D8B9" }, "geometry": { "type": "Point", "coordinates": [ 2.295762685, 48.8744076 ] } },
{ "type": "Feature", "properties": { "Nom de référence": "Charles Michels", "Nom": "Charles Michels", "Ouverture": "1945-07-14", "Lignes": [ "Ligne 10" ], "Couleur": "#C9910D" }, "geometry": { "type": "Point", "coordinates": [ 2.286942, 48.846591 ] } },
{ "type": "Feature", "properties": { "Nom de référence": "Charonne", "Nom": "Charonne", "Ouverture": "1933-12-10", "Lignes": [ "Ligne 9" ], "Couleur": "#B6BD00" }, "geometry": { "type": "Point", "coordinates": [ 2.384639382, 48.85510281 ] } },
{ "type": "Feature", "properties": { "Nom de référence": "Château d'Eau", "Nom": "Château d'Eau", "Ouverture": "1908-04-21", "Lignes": [ "Ligne 4" ], "Couleur": "#CF009E" }, "geometry": { "type": "Point", "coordinates": [ 2.356148958, 48.8729012 ] } },
{ "type": "Feature", "properties": { "Nom de référence": "Château de Vincennes", "Nom": "Château de Vincennes", "Ouverture": "1934-03-24", "Lignes": [ "Ligne 1" ], "Couleur": "#FFCD00" }, "geometry": { "type": "Point", "coordinates": [ 2.439509705, 48.84453631 ] } },
{ "type": "Feature", "properties": { "Nom de référence": "Château Rouge", "Nom": "Château Rouge", "Ouverture": "1908-04-21", "Lignes": [ "Ligne 4" ], "Couleur": "#CF009E" }, "geometry": { "type": "Point", "coordinates": [ 2.349552, 48.88673 ] } },
{ "type": "Feature", "properties": { "Nom de référence": "Château-Landon", "Nom": "Château-Landon", "Ouverture": "1910-11-05", "Lignes": [ "Ligne 7" ], "Couleur": "#FA9ABA" }, "geometry": { "type": "Point", "coordinates": [ 2.362071276, 48.87845627 ] } },
{ "type": "Feature", "properties": { "Nom de référence": "Châtelet", "Nom": "Châtelet", "Ouverture": "1900-08-06", "Lignes": [ "Ligne 1", "Ligne 4", "Ligne 11", "Ligne 14", "Ligne 7" ], "Couleur": "D8D8B9" }, "geometry": { "type": "Point", "coordinates": [ 2.347119401, 48.85851952 ] } },
{ "type": "Feature", "properties": { "Nom de référence": "Pont Notre-Dame", "Nom": "Châtelet", "Ouverture": "1934-04-15", "Lignes": [ "Ligne 1", "Ligne 4", "Ligne 11", "Ligne 14", "Ligne 7" ], "Couleur": "D8D8B9" }, "geometry": { "type": "Point", "coordinates": [ 2.348899, 48.856725 ] } },
{ "type": "Feature", "properties": { "Nom de référence": "Châtillon - Montrouge", "Nom": "Châtillon - Montrouge", "Ouverture": "1976-11-09", "Lignes": [ "Ligne 13" ], "Couleur": "#6EC4E8" }, "geometry": { "type": "Point", "coordinates": [ 2.301826179, 48.81053942 ] } },
{ "type": "Feature", "properties": { "Nom de référence": "Chaussée d'Antin - La Fayette", "Nom": "Chaussée d'Antin - La Fayette", "Ouverture": "1910-11-05", "Lignes": [ "Ligne 7", "Ligne 9" ], "Couleur": "D8D8B9" }, "geometry": { "type": "Point", "coordinates": [ 2.333932221, 48.87307232 ] } },
{ "type": "Feature", "properties": { "Nom de référence": "Chemin Vert", "Nom": "Chemin Vert", "Ouverture": "1931-05-05", "Lignes": [ "Ligne 8" ], "Couleur": "#E19BDF" }, "geometry": { "type": "Point", "coordinates": [ 2.368347645, 48.85677758 ] } },
{ "type": "Feature", "properties": { "Nom de référence": "Chevaleret", "Nom": "Chevaleret", "Ouverture": "1909-03-01", "Lignes": [ "Ligne 6" ], "Couleur": "#6ECA97" }, "geometry": { "type": "Point", "coordinates": [ 2.368082106, 48.83493767 ] } },
{ "type": "Feature", "properties": { "Nom de référence": "Cité", "Nom": "Cité", "Ouverture": "1910-12-10", "Lignes": [ "Ligne 4" ], "Couleur": "#CF009E" }, "geometry": { "type": "Point", "coordinates": [ 2.346720374, 48.85510059 ] } },
{ "type": "Feature", "properties": { "Nom de référence": "Cluny - La Sorbonne", "Nom": "Cluny - La Sorbonne", "Ouverture": "1988-02-17", "Lignes": [ "Ligne 10" ], "Couleur": "#C9910D" }, "geometry": { "type": "Point", "coordinates": [ 2.344273345, 48.85105028 ] } },
{ "type": "Feature", "properties": { "Nom de référence": "Colonel Fabien", "Nom": "Colonel Fabien", "Ouverture": "1945-08-19", "Lignes": [ "Ligne 2" ], "Couleur": "#003CA6" }, "geometry": { "type": "Point", "coordinates": [ 2.37116, 48.877136 ] } },
{ "type": "Feature", "properties": { "Nom de référence": "Commerce", "Nom": "Commerce", "Ouverture": "1937-07-27", "Lignes": [ "Ligne 8" ], "Couleur": "#E19BDF" }, "geometry": { "type": "Point", "coordinates": [ 2.294215, 48.845093 ] } },
{ "type": "Feature", "properties": { "Nom de référence": "Concorde", "Nom": "Concorde", "Ouverture": "1900-08-13", "Lignes": [ "Ligne 1", "Ligne 8", "Ligne 12" ], "Couleur": "D8D8B9" }, "geometry": { "type": "Point", "coordinates": [ 2.322397, 48.866176 ] } },
{ "type": "Feature", "properties": { "Nom de référence": "Convention", "Nom": "Convention", "Ouverture": "1910-11-05", "Lignes": [ "Ligne 12" ], "Couleur": "#007852" }, "geometry": { "type": "Point", "coordinates": [ 2.296795, 48.837419 ] } },
{ "type": "Feature", "properties": { "Nom de référence": "Corentin Cariou", "Nom": "Corentin Cariou", "Ouverture": "1946-02-10", "Lignes": [ "Ligne 7" ], "Couleur": "#FA9ABA" }, "geometry": { "type": "Point", "coordinates": [ 2.382307, 48.89473 ] } },
{ "type": "Feature", "properties": { "Nom de référence": "Corentin Celton", "Nom": "Corentin Celton", "Ouverture": "1945-10-15", "Lignes": [ "Ligne 12" ], "Couleur": "#007852" }, "geometry": { "type": "Point", "coordinates": [ 2.278985, 48.826833 ] } },
{ "type": "Feature", "properties": { "Nom de référence": "Corvisart", "Nom": "Corvisart", "Ouverture": "1906-04-24", "Lignes": [ "Ligne 6" ], "Couleur": "#6ECA97" }, "geometry": { "type": "Point", "coordinates": [ 2.350508273, 48.82980683 ] } },
{ "type": "Feature", "properties": { "Nom de référence": "Cour Saint-Émilion", "Nom": "Cour Saint-Émilion", "Ouverture": "1998-10-15", "Lignes": [ "Ligne 14" ], "Couleur": "#62259D" }, "geometry": { "type": "Point", "coordinates": [ 2.386632402, 48.83333856 ] } },
{ "type": "Feature", "properties": { "Nom de référence": "Courcelles", "Nom": "Courcelles", "Ouverture": "1902-10-07", "Lignes": [ "Ligne 2" ], "Couleur": "#003CA6" }, "geometry": { "type": "Point", "coordinates": [ 2.304339, 48.879401 ] } },
{ "type": "Feature", "properties": { "Nom de référence": "Couronnes", "Nom": "Couronnes", "Ouverture": "1903-01-31", "Lignes": [ "Ligne 2" ], "Couleur": "#003CA6" }, "geometry": { "type": "Point", "coordinates": [ 2.379861, 48.869521 ] } },
{ "type": "Feature", "properties": { "Nom de référence": "Créteil - L'Échat", "Nom": "Créteil - L'Échat", "Ouverture": "1973-09-24", "Lignes": [ "Ligne 8" ], "Couleur": "#E19BDF" }, "geometry": { "type": "Point", "coordinates": [ 2.449355721, 48.79596297 ] } },
{ "type": "Feature", "properties": { "Nom de référence": "Créteil - Préfecture", "Nom": "Créteil - Préfecture", "Ouverture": "1974-09-10", "Lignes": [ "Ligne 8" ], "Couleur": "#E19BDF" }, "geometry": { "type": "Point", "coordinates": [ 2.459317446, 48.77977215 ] } },
{ "type": "Feature", "properties": { "Nom de référence": "Créteil - Université", "Nom": "Créteil - Université", "Ouverture": "1974-09-10", "Lignes": [ "Ligne 8" ], "Couleur": "#E19BDF" }, "geometry": { "type": "Point", "coordinates": [ 2.450785339, 48.78975375 ] } },
{ "type": "Feature", "properties": { "Nom de référence": "Crimée", "Nom": "Crimée", "Ouverture": "1910-11-05", "Lignes": [ "Ligne 7" ], "Couleur": "#FA9ABA" }, "geometry": { "type": "Point", "coordinates": [ 2.377377, 48.89142 ] } },
{ "type": "Feature", "properties": { "Nom de référence": "Croix de Chavaux", "Nom": "Croix de Chavaux", "Ouverture": "1937-10-14", "Lignes": [ "Ligne 9" ], "Couleur": "#B6BD00" }, "geometry": { "type": "Point", "coordinates": [ 2.435764, 48.858055 ] } },
{ "type": "Feature", "properties": { "Nom de référence": "Danube", "Nom": "Danube", "Ouverture": "1911-01-18", "Lignes": [ "Ligne 7bis" ], "Couleur": "#6ECA97" }, "geometry": { "type": "Point", "coordinates": [ 2.394201458, 48.88180772 ] } },
{ "type": "Feature", "properties": { "Nom de référence": "Daumesnil", "Nom": "Daumesnil", "Ouverture": "1909-03-01", "Lignes": [ "Ligne 6", "Ligne 8" ], "Couleur": "D8D8B9" }, "geometry": { "type": "Point", "coordinates": [ 2.395792007, 48.8396443 ] } },
{ "type": "Feature", "properties": { "Nom de référence": "Denfert-Rochereau", "Nom": "Denfert-Rochereau", "Ouverture": "1906-04-24", "Lignes": [ "Ligne 4", "Ligne 6" ], "Couleur": "D8D8B9" }, "geometry": { "type": "Point", "coordinates": [ 2.332727909, 48.8339013 ] } },
{ "type": "Feature", "properties": { "Nom de référence": "Dugommier", "Nom": "Dugommier", "Ouverture": "1939-07-12", "Lignes": [ "Ligne 6" ], "Couleur": "#6ECA97" }, "geometry": { "type": "Point", "coordinates": [ 2.389963567, 48.83904937 ] } },
{ "type": "Feature", "properties": { "Nom de référence": "Dupleix", "Nom": "Dupleix", "Ouverture": "1906-04-24", "Lignes": [ "Ligne 6" ], "Couleur": "#6ECA97" }, "geometry": { "type": "Point", "coordinates": [ 2.293610573, 48.85039234 ] } },
{ "type": "Feature", "properties": { "Nom de référence": "Duroc", "Nom": "Duroc", "Ouverture": "1923-12-30", "Lignes": [ "Ligne 10", "Ligne 13" ], "Couleur": "D8D8B9" }, "geometry": { "type": "Point", "coordinates": [ 2.316479087, 48.84682874 ] } },
{ "type": "Feature", "properties": { "Nom de référence": "École Militaire", "Nom": "École Militaire", "Ouverture": "1913-07-13", "Lignes": [ "Ligne 8" ], "Couleur": "#E19BDF" }, "geometry": { "type": "Point", "coordinates": [ 2.306737304, 48.85510987 ] } },
{ "type": "Feature", "properties": { "Nom de référence": "École vétérinaire de Maisons-Alfort", "Nom": "École vétérinaire de Maisons-Alfort", "Ouverture": "1996-01-01", "Lignes": [ "Ligne 8" ], "Couleur": "#E19BDF" }, "geometry": { "type": "Point", "coordinates": [ 2.421881855, 48.81519006 ] } },
{ "type": "Feature", "properties": { "Nom de référence": "Edgar Quinet", "Nom": "Edgar Quinet", "Ouverture": "1906-04-24", "Lignes": [ "Ligne 6" ], "Couleur": "#6ECA97" }, "geometry": { "type": "Point", "coordinates": [ 2.325083613, 48.84104773 ] } },
{ "type": "Feature", "properties": { "Nom de référence": "Église d'Auteuil", "Nom": "Église d'Auteuil", "Ouverture": "1921-05-15", "Lignes": [ "Ligne 10" ], "Couleur": "#C9910D" }, "geometry": { "type": "Point", "coordinates": [ 2.269020081, 48.8471694 ] } },
{ "type": "Feature", "properties": { "Nom de référence": "Église de Pantin", "Nom": "Église de Pantin", "Ouverture": "1942-10-12", "Lignes": [ "Ligne 5" ], "Couleur": "#FF7E2E" }, "geometry": { "type": "Point", "coordinates": [ 2.412917912, 48.89362771 ] } },
{ "type": "Feature", "properties": { "Nom de référence": "Esplanade de La Défense", "Nom": "Esplanade de La Défense", "Ouverture": "1992-04-01", "Lignes": [ "Ligne 1" ], "Couleur": "#FFCD00" }, "geometry": { "type": "Point", "coordinates": [ 2.250442325, 48.88784312 ] } },
{ "type": "Feature", "properties": { "Nom de référence": "Étienne Marcel", "Nom": "Étienne Marcel", "Ouverture": "1908-04-21", "Lignes": [ "Ligne 4" ], "Couleur": "#CF009E" }, "geometry": { "type": "Point", "coordinates": [ 2.350607514, 48.86411131 ] } },
{ "type": "Feature", "properties": { "Nom de référence": "Europe", "Nom": "Europe", "Ouverture": "1904-10-19", "Lignes": [ "Ligne 3" ], "Couleur": "#837902" }, "geometry": { "type": "Point", "coordinates": [ 2.32238, 48.878821 ] } },
{ "type": "Feature", "properties": { "Nom de référence": "Exelmans", "Nom": "Exelmans", "Ouverture": "1922-11-08", "Lignes": [ "Ligne 9" ], "Couleur": "#B6BD00" }, "geometry": { "type": "Point", "coordinates": [ 2.259549201, 48.84240522 ] } },
{ "type": "Feature", "properties": { "Nom de référence": "Faidherbe - Chaligny", "Nom": "Faidherbe - Chaligny", "Ouverture": "1931-05-05", "Lignes": [ "Ligne 8" ], "Couleur": "#E19BDF" }, "geometry": { "type": "Point", "coordinates": [ 2.38339752, 48.8501576 ] } },
{ "type": "Feature", "properties": { "Nom de référence": "Falguière", "Nom": "Falguière", "Ouverture": "1910-11-05", "Lignes": [ "Ligne 12" ], "Couleur": "#007852" }, "geometry": { "type": "Point", "coordinates": [ 2.317954, 48.84449 ] } },
{ "type": "Feature", "properties": { "Nom de référence": "Félix Faure", "Nom": "Félix Faure", "Ouverture": "1937-07-27", "Lignes": [ "Ligne 8" ], "Couleur": "#E19BDF" }, "geometry": { "type": "Point", "coordinates": [ 2.291004, 48.842351 ] } },
{ "type": "Feature", "properties": { "Nom de référence": "Filles du Calvaire", "Nom": "Filles du Calvaire", "Ouverture": "1931-05-05", "Lignes": [ "Ligne 8" ], "Couleur": "#E19BDF" }, "geometry": { "type": "Point", "coordinates": [ 2.366121411, 48.86407249 ] } },
{ "type": "Feature", "properties": { "Nom de référence": "Fort d'Aubervilliers", "Nom": "Fort d'Aubervilliers", "Ouverture": "1979-10-04", "Lignes": [ "Ligne 7" ], "Couleur": "#FA9ABA" }, "geometry": { "type": "Point", "coordinates": [ 2.40378499, 48.91423986 ] } },
{ "type": "Feature", "properties": { "Nom de référence": "Marbeuf", "Nom": "Franklin D. Roosevelt", "Ouverture": "1946-10-30", "Lignes": [ "Ligne 1", "Ligne 9" ], "Couleur": "D8D8B9" }, "geometry": { "type": "Point", "coordinates": [ 2.30772, 48.869712 ] } },
{ "type": "Feature", "properties": { "Nom de référence": "Rond-point des Champs-Élysées", "Nom": "Franklin D. Roosevelt", "Ouverture": "1946-10-30", "Lignes": [ "Ligne 1", "Ligne 9" ], "Couleur": "D8D8B9" }, "geometry": { "type": "Point", "coordinates": [ 2.309191, 48.868507 ] } },
{ "type": "Feature", "properties": { "Nom de référence": "Front Populaire", "Nom": "Front Populaire", "Ouverture": "2012-12-18", "Lignes": [ "Ligne 12" ], "Couleur": "#007852" }, "geometry": { "type": "Point", "coordinates": [ 2.365793764, 48.90689109 ] } },
{ "type": "Feature", "properties": { "Nom de référence": "Gabriel Péri", "Nom": "Gabriel Péri", "Ouverture": "2008-06-14", "Lignes": [ "Ligne 13" ], "Couleur": "#6EC4E8" }, "geometry": { "type": "Point", "coordinates": [ 2.294388413, 48.91657541 ] } },
{ "type": "Feature", "properties": { "Nom de référence": "Gaîté", "Nom": "Gaîté", "Ouverture": "1937-01-21", "Lignes": [ "Ligne 13" ], "Couleur": "#6EC4E8" }, "geometry": { "type": "Point", "coordinates": [ 2.322637439, 48.83865393 ] } },
{ "type": "Feature", "properties": { "Nom de référence": "Gallieni", "Nom": "Gallieni", "Ouverture": "1971-04-02", "Lignes": [ "Ligne 3" ], "Couleur": "#837902" }, "geometry": { "type": "Point", "coordinates": [ 2.416637, 48.864936 ] } },
{ "type": "Feature", "properties": { "Nom de référence": "Gambetta", "Nom": "Gambetta", "Ouverture": "1905-01-25", "Lignes": [ "Ligne 3", "Ligne 3bis" ], "Couleur": "D8D8B9" }, "geometry": { "type": "Point", "coordinates": [ 2.398451, 48.864947 ] } },
{ "type": "Feature", "properties": { "Nom de référence": "Gare d'Austerlitz", "Nom": "Gare d'Austerlitz", "Ouverture": "1985-04-25", "Lignes": [ "Ligne 5" ], "Couleur": "#FF7E2E" }, "geometry": { "type": "Point", "coordinates": [ 2.364970744, 48.84262588 ] } },
{ "type": "Feature", "properties": { "Nom de référence": "Gare de l'Est", "Nom": "Gare de l'Est - Verdun", "Ouverture": "1953-06-21", "Lignes": [ "Ligne 4", "Ligne 5", "Ligne 7" ], "Couleur": "D8D8B9" }, "geometry": { "type": "Point", "coordinates": [ 2.358278632, 48.87614188 ] } },
{ "type": "Feature", "properties": { "Nom de référence": "Gare de Lyon", "Nom": "Gare de Lyon", "Ouverture": "1900-07-19", "Lignes": [ "Ligne 1", "Ligne 14" ], "Couleur": "D8D8B9" }, "geometry": { "type": "Point", "coordinates": [ 2.374065908, 48.84470455 ] } },
{ "type": "Feature", "properties": { "Nom de référence": "Gare du Nord", "Nom": "Gare du Nord", "Ouverture": "1907-11-15", "Lignes": [ "Ligne 4", "Ligne 5" ], "Couleur": "D8D8B9" }, "geometry": { "type": "Point", "coordinates": [ 2.354931235, 48.88057476 ] } },
{ "type": "Feature", "properties": { "Nom de référence": "Garibaldi", "Nom": "Garibaldi", "Ouverture": "1952-06-30", "Lignes": [ "Ligne 13" ], "Couleur": "#6EC4E8" }, "geometry": { "type": "Point", "coordinates": [ 2.331907153, 48.90639693 ] } },
{ "type": "Feature", "properties": { "Nom de référence": "George V", "Nom": "George V", "Ouverture": "1920-05-27", "Lignes": [ "Ligne 1" ], "Couleur": "#FFCD00" }, "geometry": { "type": "Point", "coordinates": [ 2.300462683, 48.87198257 ] } },
{ "type": "Feature", "properties": { "Nom de référence": "Glacière", "Nom": "Glacière", "Ouverture": "1906-04-24", "Lignes": [ "Ligne 6" ], "Couleur": "#6ECA97" }, "geometry": { "type": "Point", "coordinates": [ 2.343384326, 48.8311505 ] } },
{ "type": "Feature", "properties": { "Nom de référence": "Goncourt", "Nom": "Goncourt", "Ouverture": "1935-04-28", "Lignes": [ "Ligne 11" ], "Couleur": "#704B1C" }, "geometry": { "type": "Point", "coordinates": [ 2.370686531, 48.86983144 ] } },
{ "type": "Feature", "properties": { "Nom de référence": "Grands Boulevards", "Nom": "Grands Boulevards", "Ouverture": "1998-09-01", "Lignes": [ "Ligne 8", "Ligne 9" ], "Couleur": "D8D8B9" }, "geometry": { "type": "Point", "coordinates": [ 2.344341874, 48.87142633 ] } },
{ "type": "Feature", "properties": { "Nom de référence": "Guy Môquet", "Nom": "Guy Môquet", "Ouverture": "1946-01-27", "Lignes": [ "Ligne 13" ], "Couleur": "#6EC4E8" }, "geometry": { "type": "Point", "coordinates": [ 2.327174, 48.892221 ] } },
{ "type": "Feature", "properties": { "Nom de référence": "Havre - Caumartin", "Nom": "Havre - Caumartin", "Ouverture": "1926-01-01", "Lignes": [ "Ligne 3", "Ligne 9" ], "Couleur": "D8D8B9" }, "geometry": { "type": "Point", "coordinates": [ 2.328325, 48.873608 ] } },
{ "type": "Feature", "properties": { "Nom de référence": "Hoche", "Nom": "Hoche", "Ouverture": "1942-10-12", "Lignes": [ "Ligne 5" ], "Couleur": "#FF7E2E" }, "geometry": { "type": "Point", "coordinates": [ 2.403143942, 48.89149389 ] } },
{ "type": "Feature", "properties": { "Nom de référence": "Hôtel de Ville", "Nom": "Hôtel de Ville", "Ouverture": "1900-07-19", "Lignes": [ "Ligne 1", "Ligne 11" ], "Couleur": "D8D8B9" }, "geometry": { "type": "Point", "coordinates": [ 2.35149454, 48.85676953 ] } },
{ "type": "Feature", "properties": { "Nom de référence": "Iéna", "Nom": "Iéna", "Ouverture": "1923-05-27", "Lignes": [ "Ligne 9" ], "Couleur": "#B6BD00" }, "geometry": { "type": "Point", "coordinates": [ 2.293379903, 48.86446597 ] } },
{ "type": "Feature", "properties": { "Nom de référence": "Invalides", "Nom": "Invalides", "Ouverture": "1913-12-24", "Lignes": [ "Ligne 8", "Ligne 13" ], "Couleur": "D8D8B9" }, "geometry": { "type": "Point", "coordinates": [ 2.314457, 48.860907 ] } },
{ "type": "Feature", "properties": { "Nom de référence": "Jacques Bonsergent", "Nom": "Jacques Bonsergent", "Ouverture": "1946-02-10", "Lignes": [ "Ligne 5" ], "Couleur": "#FF7E2E" }, "geometry": { "type": "Point", "coordinates": [ 2.36060679, 48.8712005 ] } },
{ "type": "Feature", "properties": { "Nom de référence": "Jasmin", "Nom": "Jasmin", "Ouverture": "1922-11-08", "Lignes": [ "Ligne 9" ], "Couleur": "#B6BD00" }, "geometry": { "type": "Point", "coordinates": [ 2.267856002, 48.85189783 ] } },
{ "type": "Feature", "properties": { "Nom de référence": "Jaurès", "Nom": "Jaurès", "Ouverture": "1914-08-01", "Lignes": [ "Ligne 2", "Ligne 5", "Ligne 7bis" ], "Couleur": "D8D8B9" }, "geometry": { "type": "Point", "coordinates": [ 2.370198369, 48.88179008 ] } },
{ "type": "Feature", "properties": { "Nom de référence": "Javel - André Citroën", "Nom": "Javel - André Citroën", "Ouverture": "1913-09-30", "Lignes": [ "Ligne 10" ], "Couleur": "#C9910D" }, "geometry": { "type": "Point", "coordinates": [ 2.278716266, 48.84616506 ] } },
{ "type": "Feature", "properties": { "Nom de référence": "Jourdain", "Nom": "Jourdain", "Ouverture": "1935-04-28", "Lignes": [ "Ligne 11" ], "Couleur": "#704B1C" }, "geometry": { "type": "Point", "coordinates": [ 2.389507592, 48.87519986 ] } },
{ "type": "Feature", "properties": { "Nom de référence": "Jules Joffrin", "Nom": "Jules Joffrin", "Ouverture": "1912-10-31", "Lignes": [ "Ligne 12" ], "Couleur": "#007852" }, "geometry": { "type": "Point", "coordinates": [ 2.344781756, 48.89243737 ] } },
{ "type": "Feature", "properties": { "Nom de référence": "Jussieu", "Nom": "Jussieu", "Ouverture": "1931-04-26", "Lignes": [ "Ligne 7", "Ligne 10" ], "Couleur": "D8D8B9" }, "geometry": { "type": "Point", "coordinates": [ 2.355738, 48.846052 ] } },
{ "type": "Feature", "properties": { "Nom de référence": "Kléber", "Nom": "Kléber", "Ouverture": "1900-10-02", "Lignes": [ "Ligne 6" ], "Couleur": "#6ECA97" }, "geometry": { "type": "Point", "coordinates": [ 2.293118, 48.871138 ] } },
{ "type": "Feature", "properties": { "Nom de référence": "La Chapelle", "Nom": "La Chapelle", "Ouverture": "1903-01-31", "Lignes": [ "Ligne 2" ], "Couleur": "#003CA6" }, "geometry": { "type": "Point", "coordinates": [ 2.360287607, 48.88441111 ] } },
{ "type": "Feature", "properties": { "Nom de référence": "La Courneuve - 8 Mai 1945", "Nom": "La Courneuve - 8 Mai 1945", "Ouverture": "1987-05-06", "Lignes": [ "Ligne 7" ], "Couleur": "#FA9ABA" }, "geometry": { "type": "Point", "coordinates": [ 2.410668, 48.920777 ] } },
{ "type": "Feature", "properties": { "Nom de référence": "La Défense", "Nom": "La Défense", "Ouverture": "1997-01-01", "Lignes": [ "Ligne 1" ], "Couleur": "#FFCD00" }, "geometry": { "type": "Point", "coordinates": [ 2.237882798, 48.89193447 ] } },
{ "type": "Feature", "properties": { "Nom de référence": "La Fourche", "Nom": "La Fourche", "Ouverture": "1911-02-26", "Lignes": [ "Ligne 13" ], "Couleur": "#6EC4E8" }, "geometry": { "type": "Point", "coordinates": [ 2.325875, 48.8869 ] } },
{ "type": "Feature", "properties": { "Nom de référence": "La Motte-Picquet - Grenelle", "Nom": "La Motte-Picquet - Grenelle", "Ouverture": "1913-11-01", "Lignes": [ "Ligne 6", "Ligne 8", "Ligne 10" ], "Couleur": "D8D8B9" }, "geometry": { "type": "Point", "coordinates": [ 2.298089862, 48.84914273 ] } },
{ "type": "Feature", "properties": { "Nom de référence": "La Muette", "Nom": "La Muette", "Ouverture": "1922-11-08", "Lignes": [ "Ligne 9" ], "Couleur": "#B6BD00" }, "geometry": { "type": "Point", "coordinates": [ 2.273719311, 48.85771818 ] } },
{ "type": "Feature", "properties": { "Nom de référence": "La Tour-Maubourg", "Nom": "La Tour-Maubourg", "Ouverture": "1913-07-13", "Lignes": [ "Ligne 8" ], "Couleur": "#E19BDF" }, "geometry": { "type": "Point", "coordinates": [ 2.310398519, 48.857667 ] } },
{ "type": "Feature", "properties": { "Nom de référence": "Lamarck - Caulaincourt", "Nom": "Lamarck - Caulaincourt", "Ouverture": "1912-10-31", "Lignes": [ "Ligne 12" ], "Couleur": "#007852" }, "geometry": { "type": "Point", "coordinates": [ 2.338693, 48.889849 ] } },
{ "type": "Feature", "properties": { "Nom de référence": "Laumière", "Nom": "Laumière", "Ouverture": "1942-10-12", "Lignes": [ "Ligne 5" ], "Couleur": "#FF7E2E" }, "geometry": { "type": "Point", "coordinates": [ 2.378524, 48.885006 ] } },
{ "type": "Feature", "properties": { "Nom de référence": "Le Kremlin-Bicêtre", "Nom": "Le Kremlin-Bicêtre", "Ouverture": "1982-12-10", "Lignes": [ "Ligne 7" ], "Couleur": "#FA9ABA" }, "geometry": { "type": "Point", "coordinates": [ 2.361849, 48.810388 ] } },
{ "type": "Feature", "properties": { "Nom de référence": "Le Peletier", "Nom": "Le Peletier", "Ouverture": "1911-06-06", "Lignes": [ "Ligne 7" ], "Couleur": "#FA9ABA" }, "geometry": { "type": "Point", "coordinates": [ 2.339548767, 48.87472003 ] } },
{ "type": "Feature", "properties": { "Nom de référence": "Ledru-Rollin", "Nom": "Ledru-Rollin", "Ouverture": "1931-05-05", "Lignes": [ "Ligne 8" ], "Couleur": "#E19BDF" }, "geometry": { "type": "Point", "coordinates": [ 2.376121, 48.851346 ] } },
{ "type": "Feature", "properties": { "Nom de référence": "Les Agnettes", "Nom": "Les Agnettes", "Ouverture": "2008-06-14", "Lignes": [ "Ligne 13" ], "Couleur": "#6EC4E8" }, "geometry": { "type": "Point", "coordinates": [ 2.285891175, 48.92303856 ] } },
{ "type": "Feature", "properties": { "Nom de référence": "Les Courtilles", "Nom": "Les Courtilles", "Ouverture": "2008-06-14", "Lignes": [ "Ligne 13" ], "Couleur": "#6EC4E8" }, "geometry": { "type": "Point", "coordinates": [ 2.283788323, 48.93060576 ] } },
{ "type": "Feature", "properties": { "Nom de référence": "Les Gobelins", "Nom": "Les Gobelins", "Ouverture": "1930-02-15", "Lignes": [ "Ligne 7" ], "Couleur": "#FA9ABA" }, "geometry": { "type": "Point", "coordinates": [ 2.35225, 48.8364 ] } },
{ "type": "Feature", "properties": { "Nom de référence": "Les Halles", "Nom": "Les Halles", "Ouverture": "1977-10-03", "Lignes": [ "Ligne 4" ], "Couleur": "#CF009E" }, "geometry": { "type": "Point", "coordinates": [ 2.345972, 48.862396 ] } },
{ "type": "Feature", "properties": { "Nom de référence": "Les Sablons", "Nom": "Les Sablons", "Ouverture": "1937-04-29", "Lignes": [ "Ligne 1" ], "Couleur": "#FFCD00" }, "geometry": { "type": "Point", "coordinates": [ 2.272539085, 48.8809018 ] } },
{ "type": "Feature", "properties": { "Nom de référence": "Liberté", "Nom": "Liberté", "Ouverture": "1942-10-05", "Lignes": [ "Ligne 8" ], "Couleur": "#E19BDF" }, "geometry": { "type": "Point", "coordinates": [ 2.407022, 48.825882 ] } },
{ "type": "Feature", "properties": { "Nom de référence": "Liège", "Nom": "Liège", "Ouverture": "1914-01-08", "Lignes": [ "Ligne 13" ], "Couleur": "#6EC4E8" }, "geometry": { "type": "Point", "coordinates": [ 2.326983, 48.879626 ] } },
{ "type": "Feature", "properties": { "Nom de référence": "Louis Blanc", "Nom": "Louis Blanc", "Ouverture": "1910-11-05", "Lignes": [ "Ligne 7", "Ligne 7bis" ], "Couleur": "D8D8B9" }, "geometry": { "type": "Point", "coordinates": [ 2.364839315, 48.88113745 ] } },
{ "type": "Feature", "properties": { "Nom de référence": "Louise Michel", "Nom": "Louise Michel", "Ouverture": "1946-05-01", "Lignes": [ "Ligne 3" ], "Couleur": "#837902" }, "geometry": { "type": "Point", "coordinates": [ 2.288002, 48.888836 ] } },
{ "type": "Feature", "properties": { "Nom de référence": "Lourmel", "Nom": "Lourmel", "Ouverture": "1937-07-27", "Lignes": [ "Ligne 8" ], "Couleur": "#E19BDF" }, "geometry": { "type": "Point", "coordinates": [ 2.2818169, 48.8386045 ] } },
{ "type": "Feature", "properties": { "Nom de référence": "Louvre - Rivoli", "Nom": "Louvre - Rivoli", "Ouverture": "1989-03-29", "Lignes": [ "Ligne 1" ], "Couleur": "#FFCD00" }, "geometry": { "type": "Point", "coordinates": [ 2.340283, 48.86108 ] } },
{ "type": "Feature", "properties": { "Nom de référence": "Mabillon", "Nom": "Mabillon", "Ouverture": "1925-03-10", "Lignes": [ "Ligne 10" ], "Couleur": "#C9910D" }, "geometry": { "type": "Point", "coordinates": [ 2.335321605, 48.85277499 ] } },
{ "type": "Feature", "properties": { "Nom de référence": "Madeleine", "Nom": "Madeleine", "Ouverture": "1910-11-05", "Lignes": [ "Ligne 8", "Ligne 12", "Ligne 14" ], "Couleur": "D8D8B9" }, "geometry": { "type": "Point", "coordinates": [ 2.3251637, 48.87006435 ] } },
{ "type": "Feature", "properties": { "Nom de référence": "Mairie d'Issy", "Nom": "Mairie d'Issy", "Ouverture": "1934-03-24", "Lignes": [ "Ligne 12" ], "Couleur": "#007852" }, "geometry": { "type": "Point", "coordinates": [ 2.273434, 48.824152 ] } },
{ "type": "Feature", "properties": { "Nom de référence": "Mairie d'Ivry", "Nom": "Mairie d'Ivry", "Ouverture": "1946-05-01", "Lignes": [ "Ligne 7" ], "Couleur": "#FA9ABA" }, "geometry": { "type": "Point", "coordinates": [ 2.383386791, 48.81112408 ] } },
{ "type": "Feature", "properties": { "Nom de référence": "Mairie de Clichy", "Nom": "Mairie de Clichy", "Ouverture": "1980-05-03", "Lignes": [ "Ligne 13" ], "Couleur": "#6EC4E8" }, "geometry": { "type": "Point", "coordinates": [ 2.305342555, 48.90395865 ] } },
{ "type": "Feature", "properties": { "Nom de référence": "Mairie de Montreuil", "Nom": "Mairie de Montreuil", "Ouverture": "1937-10-14", "Lignes": [ "Ligne 9" ], "Couleur": "#B6BD00" }, "geometry": { "type": "Point", "coordinates": [ 2.441847, 48.862283 ] } },
{ "type": "Feature", "properties": { "Nom de référence": "Mairie de Montrouge", "Nom": "Mairie de Montrouge", "Ouverture": "2013-03-23", "Lignes": [ "Ligne 4" ], "Couleur": "#CF009E" }, "geometry": { "type": "Point", "coordinates": [ 2.31953674, 48.81806483 ] } },
{ "type": "Feature", "properties": { "Nom de référence": "Mairie de Saint-Ouen", "Nom": "Mairie de Saint-Ouen", "Ouverture": "1952-06-30", "Lignes": [ "Ligne 13" ], "Couleur": "#6EC4E8" }, "geometry": { "type": "Point", "coordinates": [ 2.333752513, 48.91161864 ] } },
{ "type": "Feature", "properties": { "Nom de référence": "Mairie des Lilas", "Nom": "Mairie des Lilas", "Ouverture": "1937-02-17", "Lignes": [ "Ligne 11" ], "Couleur": "#704B1C" }, "geometry": { "type": "Point", "coordinates": [ 2.416289449, 48.87978806 ] } },
{ "type": "Feature", "properties": { "Nom de référence": "Maison Blanche", "Nom": "Maison Blanche", "Ouverture": "1930-03-07", "Lignes": [ "Ligne 7" ], "Couleur": "#FA9ABA" }, "geometry": { "type": "Point", "coordinates": [ 2.358531, 48.822155 ] } },
{ "type": "Feature", "properties": { "Nom de référence": "Maisons-Alfort - Les Juilliottes", "Nom": "Maisons-Alfort - Les Juilliottes", "Ouverture": "1972-04-27", "Lignes": [ "Ligne 8" ], "Couleur": "#E19BDF" }, "geometry": { "type": "Point", "coordinates": [ 2.446432, 48.802567 ] } },
{ "type": "Feature", "properties": { "Nom de référence": "Maisons-Alfort - Stade", "Nom": "Maisons-Alfort - Stade", "Ouverture": "1970-09-19", "Lignes": [ "Ligne 8" ], "Couleur": "#E19BDF" }, "geometry": { "type": "Point", "coordinates": [ 2.436073422, 48.80868116 ] } },
{ "type": "Feature", "properties": { "Nom de référence": "Malakoff - Plateau de Vanves", "Nom": "Malakoff - Plateau de Vanves", "Ouverture": "1976-11-09", "Lignes": [ "Ligne 13" ], "Couleur": "#6EC4E8" }, "geometry": { "type": "Point", "coordinates": [ 2.298511, 48.822623 ] } },
{ "type": "Feature", "properties": { "Nom de référence": "Malakoff - Rue Étienne-Dolet", "Nom": "Malakoff - Rue Étienne-Dolet", "Ouverture": "1976-11-09", "Lignes": [ "Ligne 13" ], "Couleur": "#6EC4E8" }, "geometry": { "type": "Point", "coordinates": [ 2.297301292, 48.81470258 ] } },
{ "type": "Feature", "properties": { "Nom de référence": "Malesherbes", "Nom": "Malesherbes", "Ouverture": "1910-05-23", "Lignes": [ "Ligne 3" ], "Couleur": "#837902" }, "geometry": { "type": "Point", "coordinates": [ 2.311002, 48.882476 ] } },
{ "type": "Feature", "properties": { "Nom de référence": "Maraîchers", "Nom": "Maraîchers", "Ouverture": "1933-12-10", "Lignes": [ "Ligne 9" ], "Couleur": "#B6BD00" }, "geometry": { "type": "Point", "coordinates": [ 2.40699023, 48.85285088 ] } },
{ "type": "Feature", "properties": { "Nom de référence": "Marcadet", "Nom": "Marcadet - Poissonniers", "Ouverture": "1931-08-25", "Lignes": [ "Ligne 4", "Ligne 12" ], "Couleur": "D8D8B9" }, "geometry": { "type": "Point", "coordinates": [ 2.349582, 48.891195 ] } },
{ "type": "Feature", "properties": { "Nom de référence": "Poissonniers", "Nom": "Marcadet - Poissonniers", "Ouverture": "1931-08-25", "Lignes": [ "Ligne 4", "Ligne 12" ], "Couleur": "D8D8B9" }, "geometry": { "type": "Point", "coordinates": [ 2.350319, 48.891478 ] } },
{ "type": "Feature", "properties": { "Nom de référence": "Marcel Sembat", "Nom": "Marcel Sembat", "Ouverture": "1934-02-03", "Lignes": [ "Ligne 9" ], "Couleur": "#B6BD00" }, "geometry": { "type": "Point", "coordinates": [ 2.243579328, 48.83367001 ] } },
{ "type": "Feature", "properties": { "Nom de référence": "Marx Dormoy", "Nom": "Marx Dormoy", "Ouverture": "1946-05-11", "Lignes": [ "Ligne 12" ], "Couleur": "#007852" }, "geometry": { "type": "Point", "coordinates": [ 2.359968, 48.890483 ] } },
{ "type": "Feature", "properties": { "Nom de référence": "Maubert - Mutualité", "Nom": "Maubert - Mutualité", "Ouverture": "1930-02-15", "Lignes": [ "Ligne 10" ], "Couleur": "#C9910D" }, "geometry": { "type": "Point", "coordinates": [ 2.347936034, 48.8501929 ] } },
{ "type": "Feature", "properties": { "Nom de référence": "Ménilmontant", "Nom": "Ménilmontant", "Ouverture": "1903-01-31", "Lignes": [ "Ligne 2" ], "Couleur": "#003CA6" }, "geometry": { "type": "Point", "coordinates": [ 2.383618, 48.866248 ] } },
{ "type": "Feature", "properties": { "Nom de référence": "Michel Bizot", "Nom": "Michel Bizot", "Ouverture": "1931-05-05", "Lignes": [ "Ligne 8" ], "Couleur": "#E19BDF" }, "geometry": { "type": "Point", "coordinates": [ 2.40123421, 48.83748523 ] } },
{ "type": "Feature", "properties": { "Nom de référence": "Michel-Ange - Auteuil", "Nom": "Michel-Ange - Auteuil", "Ouverture": "1913-09-30", "Lignes": [ "Ligne 9", "Ligne 10" ], "Couleur": "D8D8B9" }, "geometry": { "type": "Point", "coordinates": [ 2.263870239, 48.84777129 ] } },
{ "type": "Feature", "properties": { "Nom de référence": "Michel-Ange - Molitor", "Nom": "Michel-Ange - Molitor", "Ouverture": "1913-09-30", "Lignes": [ "Ligne 9", "Ligne 10" ], "Couleur": "D8D8B9" }, "geometry": { "type": "Point", "coordinates": [ 2.261194, 48.84496 ] } },
{ "type": "Feature", "properties": { "Nom de référence": "Mirabeau", "Nom": "Mirabeau", "Ouverture": "1913-09-30", "Lignes": [ "Ligne 10" ], "Couleur": "#C9910D" }, "geometry": { "type": "Point", "coordinates": [ 2.271707654, 48.84673872 ] } },
{ "type": "Feature", "properties": { "Nom de référence": "Miromesnil", "Nom": "Miromesnil", "Ouverture": "1923-05-27", "Lignes": [ "Ligne 9", "Ligne 13" ], "Couleur": "D8D8B9" }, "geometry": { "type": "Point", "coordinates": [ 2.314464748, 48.87366684 ] } },
{ "type": "Feature", "properties": { "Nom de référence": "Monceau", "Nom": "Monceau", "Ouverture": "1902-10-07", "Lignes": [ "Ligne 2" ], "Couleur": "#003CA6" }, "geometry": { "type": "Point", "coordinates": [ 2.308603, 48.880319 ] } },
{ "type": "Feature", "properties": { "Nom de référence": "Montgallet", "Nom": "Montgallet", "Ouverture": "1931-05-05", "Lignes": [ "Ligne 8" ], "Couleur": "#E19BDF" }, "geometry": { "type": "Point", "coordinates": [ 2.389974296, 48.84427635 ] } },
{ "type": "Feature", "properties": { "Nom de référence": "Avenue du Maine", "Nom": "Montparnasse - Bienvenüe", "Ouverture": "1937-01-31", "Lignes": [ "Ligne 4", "Ligne 12", "Ligne 6", "Ligne 13" ], "Couleur": "D8D8B9" }, "geometry": { "type": "Point", "coordinates": [ 2.321668, 48.84202 ] } },
{ "type": "Feature", "properties": { "Nom de référence": "Montparnasse", "Nom": "Montparnasse - Bienvenüe", "Ouverture": "1937-01-31", "Lignes": [ "Ligne 4", "Ligne 12", "Ligne 6", "Ligne 13" ], "Couleur": "D8D8B9" }, "geometry": { "type": "Point", "coordinates": [ 2.323934, 48.843826 ] } },
{ "type": "Feature", "properties": { "Nom de référence": "Mouton-Duvernet", "Nom": "Mouton-Duvernet", "Ouverture": "1909-10-30", "Lignes": [ "Ligne 4" ], "Couleur": "#CF009E" }, "geometry": { "type": "Point", "coordinates": [ 2.3299, 48.8314 ] } },
{ "type": "Feature", "properties": { "Nom de référence": "Nation", "Nom": "Nation", "Ouverture": "1900-07-19", "Lignes": [ "Ligne 1", "Ligne 2", "Ligne 6", "Ligne 9" ], "Couleur": "D8D8B9" }, "geometry": { "type": "Point", "coordinates": [ 2.395905745, 48.84846575 ] } },
{ "type": "Feature", "properties": { "Nom de référence": "Nationale", "Nom": "Nationale", "Ouverture": "1909-03-01", "Lignes": [ "Ligne 6" ], "Couleur": "#6ECA97" }, "geometry": { "type": "Point", "coordinates": [ 2.362717688, 48.83318272 ] } },
{ "type": "Feature", "properties": { "Nom de référence": "Notre-Dame-de-Lorette", "Nom": "Notre-Dame-de-Lorette", "Ouverture": "1910-11-05", "Lignes": [ "Ligne 12" ], "Couleur": "#007852" }, "geometry": { "type": "Point", "coordinates": [ 2.338586, 48.876084 ] } },
{ "type": "Feature", "properties": { "Nom de référence": "Notre-Dame-des-Champs", "Nom": "Notre-Dame-des-Champs", "Ouverture": "1910-11-05", "Lignes": [ "Ligne 12" ], "Couleur": "#007852" }, "geometry": { "type": "Point", "coordinates": [ 2.328787744, 48.84456761 ] } },
{ "type": "Feature", "properties": { "Nom de référence": "Oberkampf", "Nom": "Oberkampf", "Ouverture": "1907-01-15", "Lignes": [ "Ligne 5", "Ligne 9" ], "Couleur": "D8D8B9" }, "geometry": { "type": "Point", "coordinates": [ 2.368877, 48.864545 ] } },
{ "type": "Feature", "properties": { "Nom de référence": "Odéon", "Nom": "Odéon", "Ouverture": "1910-01-09", "Lignes": [ "Ligne 4", "Ligne 10" ], "Couleur": "D8D8B9" }, "geometry": { "type": "Point", "coordinates": [ 2.338951, 48.852066 ] } },
{ "type": "Feature", "properties": { "Nom de référence": "Olympiades", "Nom": "Olympiades", "Ouverture": "2007-06-26", "Lignes": [ "Ligne 14" ], "Couleur": "#62259D" }, "geometry": { "type": "Point", "coordinates": [ 2.366403, 48.82702 ] } },
{ "type": "Feature", "properties": { "Nom de référence": "Opéra", "Nom": "Opéra", "Ouverture": "1904-10-19", "Lignes": [ "Ligne 3", "Ligne 7", "Ligne 8" ], "Couleur": "D8D8B9" }, "geometry": { "type": "Point", "coordinates": [ 2.3323524, 48.87063595 ] } },
{ "type": "Feature", "properties": { "Nom de référence": "Ourcq", "Nom": "Ourcq", "Ouverture": "1942-10-12", "Lignes": [ "Ligne 5" ], "Couleur": "#FF7E2E" }, "geometry": { "type": "Point", "coordinates": [ 2.385747135, 48.88685563 ] } },
{ "type": "Feature", "properties": { "Nom de référence": "Palais-Royal - Musée du Louvre", "Nom": "Palais-Royal - Musée du Louvre", "Ouverture": "1989-03-29", "Lignes": [ "Ligne 1", "Ligne 7" ], "Couleur": "D8D8B9" }, "geometry": { "type": "Point", "coordinates": [ 2.335816612, 48.86284682 ] } },
{ "type": "Feature", "properties": { "Nom de référence": "Parmentier", "Nom": "Parmentier", "Ouverture": "1904-10-19", "Lignes": [ "Ligne 3" ], "Couleur": "#837902" }, "geometry": { "type": "Point", "coordinates": [ 2.374381, 48.865299 ] } },
{ "type": "Feature", "properties": { "Nom de référence": "Passy", "Nom": "Passy", "Ouverture": "1906-04-24", "Lignes": [ "Ligne 6" ], "Couleur": "#6ECA97" }, "geometry": { "type": "Point", "coordinates": [ 2.285779, 48.857445 ] } },
{ "type": "Feature", "properties": { "Nom de référence": "Pasteur", "Nom": "Pasteur", "Ouverture": "1906-04-24", "Lignes": [ "Ligne 6", "Ligne 12" ], "Couleur": "D8D8B9" }, "geometry": { "type": "Point", "coordinates": [ 2.312681079, 48.84283594 ] } },
{ "type": "Feature", "properties": { "Nom de référence": "Pelleport", "Nom": "Pelleport", "Ouverture": "1921-11-27", "Lignes": [ "Ligne 3bis" ], "Couleur": "#6EC4E8" }, "geometry": { "type": "Point", "coordinates": [ 2.401751876, 48.86867053 ] } },
{ "type": "Feature", "properties": { "Nom de référence": "Père Lachaise", "Nom": "Père Lachaise", "Ouverture": "1903-02-25", "Lignes": [ "Ligne 2", "Ligne 3" ], "Couleur": "D8D8B9" }, "geometry": { "type": "Point", "coordinates": [ 2.387388, 48.862921 ] } },
{ "type": "Feature", "properties": { "Nom de référence": "Pereire", "Nom": "Pereire", "Ouverture": "1910-05-23", "Lignes": [ "Ligne 3" ], "Couleur": "#837902" }, "geometry": { "type": "Point", "coordinates": [ 2.299211, 48.884648 ] } },
{ "type": "Feature", "properties": { "Nom de référence": "Pernety", "Nom": "Pernety", "Ouverture": "1937-01-21", "Lignes": [ "Ligne 13" ], "Couleur": "#6EC4E8" }, "geometry": { "type": "Point", "coordinates": [ 2.318512201, 48.83421027 ] } },
{ "type": "Feature", "properties": { "Nom de référence": "Philippe Auguste", "Nom": "Philippe Auguste", "Ouverture": "1903-01-31", "Lignes": [ "Ligne 2" ], "Couleur": "#003CA6" }, "geometry": { "type": "Point", "coordinates": [ 2.390938, 48.858021 ] } },
{ "type": "Feature", "properties": { "Nom de référence": "Picpus", "Nom": "Picpus", "Ouverture": "1937-03-01", "Lignes": [ "Ligne 6" ], "Couleur": "#6ECA97" }, "geometry": { "type": "Point", "coordinates": [ 2.40049392, 48.84515011 ] } },
{ "type": "Feature", "properties": { "Nom de référence": "Pierre et Marie Curie", "Nom": "Pierre et Marie Curie", "Ouverture": "2007-03-08", "Lignes": [ "Ligne 7" ], "Couleur": "#FA9ABA" }, "geometry": { "type": "Point", "coordinates": [ 2.377893627, 48.81591773 ] } },
{ "type": "Feature", "properties": { "Nom de référence": "Pigalle", "Nom": "Pigalle", "Ouverture": "1902-10-07", "Lignes": [ "Ligne 2", "Ligne 12" ], "Couleur": "D8D8B9" }, "geometry": { "type": "Point", "coordinates": [ 2.337573, 48.882255 ] } },
{ "type": "Feature", "properties": { "Nom de référence": "Place d'Italie", "Nom": "Place d'Italie", "Ouverture": "1906-06-02", "Lignes": [ "Ligne 5", "Ligne 6", "Ligne 7" ], "Couleur": "D8D8B9" }, "geometry": { "type": "Point", "coordinates": [ 2.355692, 48.831483 ] } },
{ "type": "Feature", "properties": { "Nom de référence": "Place de Clichy", "Nom": "Place de Clichy", "Ouverture": "1902-10-26", "Lignes": [ "Ligne 2", "Ligne 13" ], "Couleur": "D8D8B9" }, "geometry": { "type": "Point", "coordinates": [ 2.327625, 48.883809 ] } },
{ "type": "Feature", "properties": { "Nom de référence": "Place des Fêtes", "Nom": "Place des Fêtes", "Ouverture": "1912-02-13", "Lignes": [ "Ligne 11", "Ligne 7bis" ], "Couleur": "D8D8B9" }, "geometry": { "type": "Point", "coordinates": [ 2.392959595, 48.87684044 ] } },
{ "type": "Feature", "properties": { "Nom de référence": "Place Monge", "Nom": "Place Monge", "Ouverture": "1930-02-15", "Lignes": [ "Ligne 7" ], "Couleur": "#FA9ABA" }, "geometry": { "type": "Point", "coordinates": [ 2.352279, 48.84359 ] } },
{ "type": "Feature", "properties": { "Nom de référence": "Plaisance", "Nom": "Plaisance", "Ouverture": "1937-01-21", "Lignes": [ "Ligne 13" ], "Couleur": "#6EC4E8" }, "geometry": { "type": "Point", "coordinates": [ 2.313740551, 48.83155306 ] } },
{ "type": "Feature", "properties": { "Nom de référence": "Pointe du Lac", "Nom": "Pointe du Lac", "Ouverture": "2011-10-08", "Lignes": [ "Ligne 8" ], "Couleur": "#E19BDF" }, "geometry": { "type": "Point", "coordinates": [ 2.46481061, 48.76878622 ] } },
{ "type": "Feature", "properties": { "Nom de référence": "Poissonnière", "Nom": "Poissonnière", "Ouverture": "1910-11-05", "Lignes": [ "Ligne 7" ], "Couleur": "#FA9ABA" }, "geometry": { "type": "Point", "coordinates": [ 2.348445654, 48.87707506 ] } },
{ "type": "Feature", "properties": { "Nom de référence": "Pont de Levallois - Bécon", "Nom": "Pont de Levallois - Bécon", "Ouverture": "1937-09-24", "Lignes": [ "Ligne 3" ], "Couleur": "#837902" }, "geometry": { "type": "Point", "coordinates": [ 2.280787, 48.897313 ] } },
{ "type": "Feature", "properties": { "Nom de référence": "Pont de Neuilly", "Nom": "Pont de Neuilly", "Ouverture": "1937-04-29", "Lignes": [ "Ligne 1" ], "Couleur": "#FFCD00" }, "geometry": { "type": "Point", "coordinates": [ 2.259891725, 48.88450938 ] } },
{ "type": "Feature", "properties": { "Nom de référence": "Pont de Sèvres", "Nom": "Pont de Sèvres", "Ouverture": "1934-02-03", "Lignes": [ "Ligne 9" ], "Couleur": "#B6BD00" }, "geometry": { "type": "Point", "coordinates": [ 2.231034636, 48.82974679 ] } },
{ "type": "Feature", "properties": { "Nom de référence": "Pont Marie", "Nom": "Pont Marie", "Ouverture": "1926-04-16", "Lignes": [ "Ligne 7" ], "Couleur": "#FA9ABA" }, "geometry": { "type": "Point", "coordinates": [ 2.357616127, 48.8532868 ] } },
{ "type": "Feature", "properties": { "Nom de référence": "Pont-Neuf", "Nom": "Pont-Neuf - La Monnaie", "Ouverture": "1990-12-01", "Lignes": [ "Ligne 7" ], "Couleur": "#FA9ABA" }, "geometry": { "type": "Point", "coordinates": [ 2.341488004, 48.85867641 ] } },
{ "type": "Feature", "properties": { "Nom de référence": "Porte d'Auteuil", "Nom": "Porte d'Auteuil", "Ouverture": "1913-09-30", "Lignes": [ "Ligne 10" ], "Couleur": "#C9910D" }, "geometry": { "type": "Point", "coordinates": [ 2.25875, 48.848025 ] } },
{ "type": "Feature", "properties": { "Nom de référence": "Porte d'Italie", "Nom": "Porte d'Italie", "Ouverture": "1930-03-07", "Lignes": [ "Ligne 7" ], "Couleur": "#FA9ABA" }, "geometry": { "type": "Point", "coordinates": [ 2.360805, 48.819196 ] } },
{ "type": "Feature", "properties": { "Nom de référence": "Porte d'Ivry", "Nom": "Porte d'Ivry", "Ouverture": "1931-04-26", "Lignes": [ "Ligne 7" ], "Couleur": "#FA9ABA" }, "geometry": { "type": "Point", "coordinates": [ 2.370439768, 48.82095992 ] } },
{ "type": "Feature", "properties": { "Nom de référence": "Porte d'Orléans", "Nom": "Porte d'Orléans", "Ouverture": "1909-10-30", "Lignes": [ "Ligne 4" ], "Couleur": "#CF009E" }, "geometry": { "type": "Point", "coordinates": [ 2.325363, 48.82319 ] } },
{ "type": "Feature", "properties": { "Nom de référence": "Porte Dauphine", "Nom": "Porte Dauphine", "Ouverture": "1900-12-13", "Lignes": [ "Ligne 2" ], "Couleur": "#003CA6" }, "geometry": { "type": "Point", "coordinates": [ 2.276768, 48.871545 ] } },
{ "type": "Feature", "properties": { "Nom de référence": "Porte de Bagnolet", "Nom": "Porte de Bagnolet", "Ouverture": "1971-04-02", "Lignes": [ "Ligne 3" ], "Couleur": "#837902" }, "geometry": { "type": "Point", "coordinates": [ 2.407278, 48.864565 ] } },
{ "type": "Feature", "properties": { "Nom de référence": "Porte de Champerret", "Nom": "Porte de Champerret", "Ouverture": "1911-02-11", "Lignes": [ "Ligne 3" ], "Couleur": "#837902" }, "geometry": { "type": "Point", "coordinates": [ 2.293487, 48.885851 ] } },
{ "type": "Feature", "properties": { "Nom de référence": "Porte de Charenton", "Nom": "Porte de Charenton", "Ouverture": "1931-05-05", "Lignes": [ "Ligne 8" ], "Couleur": "#E19BDF" }, "geometry": { "type": "Point", "coordinates": [ 2.400400043, 48.83278016 ] } },
{ "type": "Feature", "properties": { "Nom de référence": "Porte de Choisy", "Nom": "Porte de Choisy", "Ouverture": "1930-03-07", "Lignes": [ "Ligne 7" ], "Couleur": "#FA9ABA" }, "geometry": { "type": "Point", "coordinates": [ 2.365292609, 48.82031533 ] } },
{ "type": "Feature", "properties": { "Nom de référence": "Porte de Clichy", "Nom": "Porte de Clichy", "Ouverture": "1912-01-20", "Lignes": [ "Ligne 13" ], "Couleur": "#6EC4E8" }, "geometry": { "type": "Point", "coordinates": [ 2.313652039, 48.89434542 ] } },
{ "type": "Feature", "properties": { "Nom de référence": "Porte de Clignancourt", "Nom": "Porte de Clignancourt", "Ouverture": "1908-04-21", "Lignes": [ "Ligne 4" ], "Couleur": "#CF009E" }, "geometry": { "type": "Point", "coordinates": [ 2.344778877, 48.89728706 ] } },
{ "type": "Feature", "properties": { "Nom de référence": "Porte de la Chapelle", "Nom": "Porte de la Chapelle", "Ouverture": "1916-08-23", "Lignes": [ "Ligne 12" ], "Couleur": "#007852" }, "geometry": { "type": "Point", "coordinates": [ 2.359190583, 48.89727437 ] } },
{ "type": "Feature", "properties": { "Nom de référence": "Porte de la Villette", "Nom": "Porte de la Villette", "Ouverture": "1910-11-05", "Lignes": [ "Ligne 7" ], "Couleur": "#FA9ABA" }, "geometry": { "type": "Point", "coordinates": [ 2.385875881, 48.89708922 ] } },
{ "type": "Feature", "properties": { "Nom de référence": "Porte de Montreuil", "Nom": "Porte de Montreuil", "Ouverture": "1933-12-10", "Lignes": [ "Ligne 9" ], "Couleur": "#B6BD00" }, "geometry": { "type": "Point", "coordinates": [ 2.412244678, 48.85379155 ] } },
{ "type": "Feature", "properties": { "Nom de référence": "Porte de Pantin", "Nom": "Porte de Pantin", "Ouverture": "1942-10-12", "Lignes": [ "Ligne 5" ], "Couleur": "#FF7E2E" }, "geometry": { "type": "Point", "coordinates": [ 2.391814291, 48.88847113 ] } },
{ "type": "Feature", "properties": { "Nom de référence": "Porte de Saint-Cloud", "Nom": "Porte de Saint-Cloud", "Ouverture": "1923-09-29", "Lignes": [ "Ligne 9" ], "Couleur": "#B6BD00" }, "geometry": { "type": "Point", "coordinates": [ 2.256956, 48.838082 ] } },
{ "type": "Feature", "properties": { "Nom de référence": "Porte de Saint-Ouen", "Nom": "Porte de Saint-Ouen", "Ouverture": "1911-02-26", "Lignes": [ "Ligne 13" ], "Couleur": "#6EC4E8" }, "geometry": { "type": "Point", "coordinates": [ 2.32870996, 48.89677359 ] } },
{ "type": "Feature", "properties": { "Nom de référence": "Porte de Vanves", "Nom": "Porte de Vanves", "Ouverture": "1937-01-21", "Lignes": [ "Ligne 13" ], "Couleur": "#6EC4E8" }, "geometry": { "type": "Point", "coordinates": [ 2.305884361, 48.82794045 ] } },
{ "type": "Feature", "properties": { "Nom de référence": "Porte de Versailles", "Nom": "Porte de Versailles", "Ouverture": "1930-01-01", "Lignes": [ "Ligne 12" ], "Couleur": "#007852" }, "geometry": { "type": "Point", "coordinates": [ 2.287841, 48.832328 ] } },
{ "type": "Feature", "properties": { "Nom de référence": "Porte de Vincenne", "Nom": "Porte de Vincenne", "Ouverture": "1900-07-19", "Lignes": [ "Ligne 1" ], "Couleur": "#FFCD00" }, "geometry": { "type": "Point", "coordinates": [ 2.408883525, 48.84726571 ] } },
{ "type": "Feature", "properties": { "Nom de référence": "Porte des Lilas", "Nom": "Porte des Lilas", "Ouverture": "1921-11-27", "Lignes": [ "Ligne 11", "Ligne 3bis" ], "Couleur": "D8D8B9" }, "geometry": { "type": "Point", "coordinates": [ 2.406655, 48.877183 ] } },
{ "type": "Feature", "properties": { "Nom de référence": "Porte Dorée", "Nom": "Porte Dorée", "Ouverture": "1931-05-05", "Lignes": [ "Ligne 8" ], "Couleur": "#E19BDF" }, "geometry": { "type": "Point", "coordinates": [ 2.406099737, 48.83548144 ] } },
{ "type": "Feature", "properties": { "Nom de référence": "Porte Maillot", "Nom": "Porte Maillot", "Ouverture": "1937-04-27", "Lignes": [ "Ligne 1" ], "Couleur": "#FFCD00" }, "geometry": { "type": "Point", "coordinates": [ 2.281836173, 48.8779645 ] } },
{ "type": "Feature", "properties": { "Nom de référence": "Pré-Saint-Gervais", "Nom": "Pré-Saint-Gervais", "Ouverture": "1911-01-18", "Lignes": [ "Ligne 7bis" ], "Couleur": "#6ECA97" }, "geometry": { "type": "Point", "coordinates": [ 2.398914099, 48.8802502 ] } },
{ "type": "Feature", "properties": { "Nom de référence": "Pyramides", "Nom": "Pyramides", "Ouverture": "1916-07-01", "Lignes": [ "Ligne 7", "Ligne 14" ], "Couleur": "D8D8B9" }, "geometry": { "type": "Point", "coordinates": [ 2.333665066, 48.8669463 ] } },
{ "type": "Feature", "properties": { "Nom de référence": "Pyrénées", "Nom": "Pyrénées", "Ouverture": "1935-04-28", "Lignes": [ "Ligne 11" ], "Couleur": "#704B1C" }, "geometry": { "type": "Point", "coordinates": [ 2.385258973, 48.87387501 ] } },
{ "type": "Feature", "properties": { "Nom de référence": "Quai de la Gare", "Nom": "Quai de la Gare", "Ouverture": "1916-06-01", "Lignes": [ "Ligne 6" ], "Couleur": "#6ECA97" }, "geometry": { "type": "Point", "coordinates": [ 2.372773, 48.837069 ] } },
{ "type": "Feature", "properties": { "Nom de référence": "Quai de la Rapée", "Nom": "Quai de la Rapée", "Ouverture": "1916-06-01", "Lignes": [ "Ligne 5" ], "Couleur": "#FF7E2E" }, "geometry": { "type": "Point", "coordinates": [ 2.365826368, 48.84653927 ] } },
{ "type": "Feature", "properties": { "Nom de référence": "Quatre-Septembre", "Nom": "Quatre-Septembre", "Ouverture": "1904-11-03", "Lignes": [ "Ligne 3" ], "Couleur": "#837902" }, "geometry": { "type": "Point", "coordinates": [ 2.336633, 48.869574 ] } },
{ "type": "Feature", "properties": { "Nom de référence": "Rambuteau", "Nom": "Rambuteau", "Ouverture": "1935-04-28", "Lignes": [ "Ligne 11" ], "Couleur": "#704B1C" }, "geometry": { "type": "Point", "coordinates": [ 2.353905, 48.861951 ] } },
{ "type": "Feature", "properties": { "Nom de référence": "Ranelagh", "Nom": "Ranelagh", "Ouverture": "1922-11-08", "Lignes": [ "Ligne 9" ], "Couleur": "#B6BD00" }, "geometry": { "type": "Point", "coordinates": [ 2.269634306, 48.85501987 ] } },
{ "type": "Feature", "properties": { "Nom de référence": "Raspail", "Nom": "Raspail", "Ouverture": "1906-04-24", "Lignes": [ "Ligne 4", "Ligne 6" ], "Couleur": "D8D8B9" }, "geometry": { "type": "Point", "coordinates": [ 2.330606282, 48.83919413 ] } },
{ "type": "Feature", "properties": { "Nom de référence": "Réaumur - Sébastopol", "Nom": "Réaumur - Sébastopol", "Ouverture": "1907-10-15", "Lignes": [ "Ligne 3", "Ligne 4" ], "Couleur": "D8D8B9" }, "geometry": { "type": "Point", "coordinates": [ 2.352388501, 48.86624629 ] } },
{ "type": "Feature", "properties": { "Nom de référence": "Rennes", "Nom": "Rennes", "Ouverture": "1968-05-20", "Lignes": [ "Ligne 12" ], "Couleur": "#007852" }, "geometry": { "type": "Point", "coordinates": [ 2.32776314, 48.84819314 ] } },
{ "type": "Feature", "properties": { "Nom de référence": "République", "Nom": "République", "Ouverture": "1904-10-19", "Lignes": [ "Ligne 3", "Ligne 5", "Ligne 8", "Ligne 9", "Ligne 11" ], "Couleur": "D8D8B9" }, "geometry": { "type": "Point", "coordinates": [ 2.363811, 48.867503 ] } },
{ "type": "Feature", "properties": { "Nom de référence": "Reuilly - Diderot", "Nom": "Reuilly - Diderot", "Ouverture": "1931-05-05", "Lignes": [ "Ligne 1", "Ligne 8" ], "Couleur": "D8D8B9" }, "geometry": { "type": "Point", "coordinates": [ 2.386702, 48.847265 ] } },
{ "type": "Feature", "properties": { "Nom de référence": "Richard-Lenoir", "Nom": "Richard-Lenoir", "Ouverture": "1906-12-17", "Lignes": [ "Ligne 5" ], "Couleur": "#FF7E2E" }, "geometry": { "type": "Point", "coordinates": [ 2.371843, 48.859772 ] } },
{ "type": "Feature", "properties": { "Nom de référence": "Richelieu - Drouot", "Nom": "Richelieu - Drouot", "Ouverture": "1928-06-30", "Lignes": [ "Ligne 8", "Ligne 9" ], "Couleur": "D8D8B9" }, "geometry": { "type": "Point", "coordinates": [ 2.338741422, 48.87198735 ] } },
{ "type": "Feature", "properties": { "Nom de référence": "Riquet", "Nom": "Riquet", "Ouverture": "1910-11-05", "Lignes": [ "Ligne 7" ], "Couleur": "#FA9ABA" }, "geometry": { "type": "Point", "coordinates": [ 2.373577952, 48.88788032 ] } },
{ "type": "Feature", "properties": { "Nom de référence": "Robespierre", "Nom": "Robespierre", "Ouverture": "1937-10-14", "Lignes": [ "Ligne 9" ], "Couleur": "#B6BD00" }, "geometry": { "type": "Point", "coordinates": [ 2.423678, 48.855683 ] } },
{ "type": "Feature", "properties": { "Nom de référence": "Rome", "Nom": "Rome", "Ouverture": "1902-11-06", "Lignes": [ "Ligne 2" ], "Couleur": "#003CA6" }, "geometry": { "type": "Point", "coordinates": [ 2.322052, 48.882425 ] } },
{ "type": "Feature", "properties": { "Nom de référence": "Rue de la Pompe", "Nom": "Rue de la Pompe", "Ouverture": "1922-11-08", "Lignes": [ "Ligne 9" ], "Couleur": "#B6BD00" }, "geometry": { "type": "Point", "coordinates": [ 2.279051542, 48.86391193 ] } },
{ "type": "Feature", "properties": { "Nom de référence": "Rue des Boulets", "Nom": "Rue des Boulets", "Ouverture": "1998-09-01", "Lignes": [ "Ligne 9" ], "Couleur": "#B6BD00" }, "geometry": { "type": "Point", "coordinates": [ 2.390151322, 48.85181135 ] } },
{ "type": "Feature", "properties": { "Nom de référence": "Rue du Bac", "Nom": "Rue du Bac", "Ouverture": "1910-11-05", "Lignes": [ "Ligne 12" ], "Couleur": "#007852" }, "geometry": { "type": "Point", "coordinates": [ 2.325606644, 48.85569049 ] } },
{ "type": "Feature", "properties": { "Nom de référence": "Rue Saint-Maur", "Nom": "Rue Saint-Maur", "Ouverture": "1998-09-01", "Lignes": [ "Ligne 3" ], "Couleur": "#837902" }, "geometry": { "type": "Point", "coordinates": [ 2.379448, 48.864335 ] } },
{ "type": "Feature", "properties": { "Nom de référence": "Saint-Ambroise", "Nom": "Saint-Ambroise", "Ouverture": "1933-12-10", "Lignes": [ "Ligne 9" ], "Couleur": "#B6BD00" }, "geometry": { "type": "Point", "coordinates": [ 2.374210954, 48.86129512 ] } },
{ "type": "Feature", "properties": { "Nom de référence": "Saint-Augustin", "Nom": "Saint-Augustin", "Ouverture": "1923-05-27", "Lignes": [ "Ligne 9" ], "Couleur": "#B6BD00" }, "geometry": { "type": "Point", "coordinates": [ 2.322133183, 48.8744413 ] } },
{ "type": "Feature", "properties": { "Nom de référence": "Saint-Denis - Porte de Paris", "Nom": "Saint-Denis - Porte de Paris", "Ouverture": "1976-06-20", "Lignes": [ "Ligne 13" ], "Couleur": "#6EC4E8" }, "geometry": { "type": "Point", "coordinates": [ 2.357769012, 48.93021104 ] } },
{ "type": "Feature", "properties": { "Nom de référence": "Saint-Denis - Université", "Nom": "Saint-Denis - Université", "Ouverture": "1998-05-25", "Lignes": [ "Ligne 13" ], "Couleur": "#6EC4E8" }, "geometry": { "type": "Point", "coordinates": [ 2.363674, 48.945799 ] } },
{ "type": "Feature", "properties": { "Nom de référence": "Saint-Fargeau", "Nom": "Saint-Fargeau", "Ouverture": "1921-11-27", "Lignes": [ "Ligne 3bis" ], "Couleur": "#6EC4E8" }, "geometry": { "type": "Point", "coordinates": [ 2.404519916, 48.87208261 ] } },
{ "type": "Feature", "properties": { "Nom de référence": "Saint-François-Xavier", "Nom": "Saint-François-Xavier", "Ouverture": "1923-12-30", "Lignes": [ "Ligne 13" ], "Couleur": "#6EC4E8" }, "geometry": { "type": "Point", "coordinates": [ 2.314475477, 48.85195078 ] } },
{ "type": "Feature", "properties": { "Nom de référence": "Saint-Georges", "Nom": "Saint-Georges", "Ouverture": "1911-04-08", "Lignes": [ "Ligne 12" ], "Couleur": "#007852" }, "geometry": { "type": "Point", "coordinates": [ 2.337381542, 48.87844922 ] } },
{ "type": "Feature", "properties": { "Nom de référence": "Saint-Germain-des-Prés", "Nom": "Saint-Germain-des-Prés", "Ouverture": "1910-01-09", "Lignes": [ "Ligne 4" ], "Couleur": "#CF009E" }, "geometry": { "type": "Point", "coordinates": [ 2.333280444, 48.8537739 ] } },
{ "type": "Feature", "properties": { "Nom de référence": "Saint-Jacques", "Nom": "Saint-Jacques", "Ouverture": "1906-04-24", "Lignes": [ "Ligne 6" ], "Couleur": "#6ECA97" }, "geometry": { "type": "Point", "coordinates": [ 2.337081134, 48.83291258 ] } },
{ "type": "Feature", "properties": { "Nom de référence": "Saint-Lazare", "Nom": "Saint-Lazare", "Ouverture": "1904-10-19", "Lignes": [ "Ligne 3", "Ligne 12", "Ligne 13", "Ligne 14" ], "Couleur": "D8D8B9" }, "geometry": { "type": "Point", "coordinates": [ 2.326185659, 48.87557787 ] } },
{ "type": "Feature", "properties": { "Nom de référence": "Saint-Mandé", "Nom": "Saint-Mandé - Tourelle", "Ouverture": "2002-07-16", "Lignes": [ "Ligne 1" ], "Couleur": "#FFCD00" }, "geometry": { "type": "Point", "coordinates": [ 2.418673101, 48.84629776 ] } },
{ "type": "Feature", "properties": { "Nom de référence": "Saint-Marcel", "Nom": "Saint-Marcel", "Ouverture": "1906-06-02", "Lignes": [ "Ligne 5" ], "Couleur": "#FF7E2E" }, "geometry": { "type": "Point", "coordinates": [ 2.360416353, 48.83798838 ] } },
{ "type": "Feature", "properties": { "Nom de référence": "Saint-Michel", "Nom": "Saint-Michel", "Ouverture": "1910-07-09", "Lignes": [ "Ligne 4" ], "Couleur": "#CF009E" }, "geometry": { "type": "Point", "coordinates": [ 2.343928814, 48.85365036 ] } },
{ "type": "Feature", "properties": { "Nom de référence": "Saint-Paul", "Nom": "Saint-Paul", "Ouverture": "1900-08-06", "Lignes": [ "Ligne 1" ], "Couleur": "#FFCD00" }, "geometry": { "type": "Point", "coordinates": [ 2.360653354, 48.8551436 ] } },
{ "type": "Feature", "properties": { "Nom de référence": "Saint-Philippe du Roule", "Nom": "Saint-Philippe du Roule", "Ouverture": "1923-05-27", "Lignes": [ "Ligne 9" ], "Couleur": "#B6BD00" }, "geometry": { "type": "Point", "coordinates": [ 2.310036421, 48.87194148 ] } },
{ "type": "Feature", "properties": { "Nom de référence": "Saint-Placide", "Nom": "Saint-Placide", "Ouverture": "1913-11-15", "Lignes": [ "Ligne 4" ], "Couleur": "#CF009E" }, "geometry": { "type": "Point", "coordinates": [ 2.32691288, 48.84684463 ] } },
{ "type": "Feature", "properties": { "Nom de référence": "Saint-Sébastien - Froissart", "Nom": "Saint-Sébastien - Froissart", "Ouverture": "1932-01-12", "Lignes": [ "Ligne 8" ], "Couleur": "#E19BDF" }, "geometry": { "type": "Point", "coordinates": [ 2.36735791, 48.86047987 ] } },
{ "type": "Feature", "properties": { "Nom de référence": "Saint-Sulpice", "Nom": "Saint-Sulpice", "Ouverture": "1910-01-09", "Lignes": [ "Ligne 4" ], "Couleur": "#CF009E" }, "geometry": { "type": "Point", "coordinates": [ 2.330651879, 48.85090947 ] } },
{ "type": "Feature", "properties": { "Nom de référence": "Ségur", "Nom": "Ségur", "Ouverture": "1937-09-29", "Lignes": [ "Ligne 10" ], "Couleur": "#C9910D" }, "geometry": { "type": "Point", "coordinates": [ 2.306852639, 48.84743417 ] } },
{ "type": "Feature", "properties": { "Nom de référence": "Sentier", "Nom": "Sentier", "Ouverture": "1904-11-20", "Lignes": [ "Ligne 3" ], "Couleur": "#837902" }, "geometry": { "type": "Point", "coordinates": [ 2.346387, 48.867569 ] } },
{ "type": "Feature", "properties": { "Nom de référence": "Sèvres - Babylone", "Nom": "Sèvres - Babylone", "Ouverture": "1923-12-30", "Lignes": [ "Ligne 10", "Ligne 12" ], "Couleur": "D8D8B9" }, "geometry": { "type": "Point", "coordinates": [ 2.326655388, 48.85150955 ] } },
{ "type": "Feature", "properties": { "Nom de référence": "Sèvres - Lecourbe", "Nom": "Sèvres - Lecourbe", "Ouverture": "1913-11-01", "Lignes": [ "Ligne 6" ], "Couleur": "#6ECA97" }, "geometry": { "type": "Point", "coordinates": [ 2.309475839, 48.84563376 ] } },
{ "type": "Feature", "properties": { "Nom de référence": "Simplon", "Nom": "Simplon", "Ouverture": "1908-04-21", "Lignes": [ "Ligne 4" ], "Couleur": "#CF009E" }, "geometry": { "type": "Point", "coordinates": [ 2.347091065, 48.89463269 ] } },
{ "type": "Feature", "properties": { "Nom de référence": "Solférino", "Nom": "Solférino", "Ouverture": "1910-11-05", "Lignes": [ "Ligne 12" ], "Couleur": "#007852" }, "geometry": { "type": "Point", "coordinates": [ 2.323224843, 48.85824935 ] } },
{ "type": "Feature", "properties": { "Nom de référence": "Stalingrad", "Nom": "Stalingrad", "Ouverture": "1946-02-10", "Lignes": [ "Ligne 2", "Ligne 5", "Ligne 7" ], "Couleur": "D8D8B9" }, "geometry": { "type": "Point", "coordinates": [ 2.365823686, 48.88426295 ] } },
{ "type": "Feature", "properties": { "Nom de référence": "Strasbourg - Saint-Denis", "Nom": "Strasbourg - Saint-Denis", "Ouverture": "1931-05-05", "Lignes": [ "Ligne 4", "Ligne 8", "Ligne 9" ], "Couleur": "D8D8B9" }, "geometry": { "type": "Point", "coordinates": [ 2.354008555, 48.8695915 ] } },
{ "type": "Feature", "properties": { "Nom de référence": "Sully - Morland", "Nom": "Sully - Morland", "Ouverture": "1930-06-03", "Lignes": [ "Ligne 7" ], "Couleur": "#FA9ABA" }, "geometry": { "type": "Point", "coordinates": [ 2.36189425, 48.85142483 ] } },
{ "type": "Feature", "properties": { "Nom de référence": "Télégraphe", "Nom": "Télégraphe", "Ouverture": "1935-04-28", "Lignes": [ "Ligne 11" ], "Couleur": "#704B1C" }, "geometry": { "type": "Point", "coordinates": [ 2.398433983, 48.87546271 ] } },
{ "type": "Feature", "properties": { "Nom de référence": "Temple", "Nom": "Temple", "Ouverture": "1904-10-19", "Lignes": [ "Ligne 3" ], "Couleur": "#837902" }, "geometry": { "type": "Point", "coordinates": [ 2.360595, 48.866488 ] } },
{ "type": "Feature", "properties": { "Nom de référence": "Ternes", "Nom": "Ternes", "Ouverture": "1902-10-07", "Lignes": [ "Ligne 2" ], "Couleur": "#003CA6" }, "geometry": { "type": "Point", "coordinates": [ 2.298671, 48.878178 ] } },
{ "type": "Feature", "properties": { "Nom de référence": "Tolbiac", "Nom": "Tolbiac", "Ouverture": "1930-03-07", "Lignes": [ "Ligne 7" ], "Couleur": "#FA9ABA" }, "geometry": { "type": "Point", "coordinates": [ 2.357678, 48.826665 ] } },
{ "type": "Feature", "properties": { "Nom de référence": "Trinité - d'Estienne d'Orves", "Nom": "Trinité - d'Estienne d'Orves", "Ouverture": "1910-11-05", "Lignes": [ "Ligne 12" ], "Couleur": "#007852" }, "geometry": { "type": "Point", "coordinates": [ 2.333197296, 48.87630241 ] } },
{ "type": "Feature", "properties": { "Nom de référence": "Trocadéro", "Nom": "Trocadéro", "Ouverture": "1900-10-02", "Lignes": [ "Ligne 6", "Ligne 9" ], "Couleur": "D8D8B9" }, "geometry": { "type": "Point", "coordinates": [ 2.287060618, 48.86330141 ] } },
{ "type": "Feature", "properties": { "Nom de référence": "Tuileries", "Nom": "Tuileries", "Ouverture": "1900-07-19", "Lignes": [ "Ligne 1" ], "Couleur": "#FFCD00" }, "geometry": { "type": "Point", "coordinates": [ 2.33031418, 48.8644971 ] } },
{ "type": "Feature", "properties": { "Nom de référence": "Vaneau", "Nom": "Vaneau", "Ouverture": "1923-12-30", "Lignes": [ "Ligne 10" ], "Couleur": "#C9910D" }, "geometry": { "type": "Point", "coordinates": [ 2.321205, 48.848811 ] } },
{ "type": "Feature", "properties": { "Nom de référence": "Varenne", "Nom": "Varenne", "Ouverture": "1962-12-24", "Lignes": [ "Ligne 13" ], "Couleur": "#6EC4E8" }, "geometry": { "type": "Point", "coordinates": [ 2.314920723, 48.85623757 ] } },
{ "type": "Feature", "properties": { "Nom de référence": "Vaugirard", "Nom": "Vaugirard", "Ouverture": "1910-11-05", "Lignes": [ "Ligne 12" ], "Couleur": "#007852" }, "geometry": { "type": "Point", "coordinates": [ 2.301491, 48.839649 ] } },
{ "type": "Feature", "properties": { "Nom de référence": "Vavin", "Nom": "Vavin", "Ouverture": "1910-01-09", "Lignes": [ "Ligne 4" ], "Couleur": "#CF009E" }, "geometry": { "type": "Point", "coordinates": [ 2.328948677, 48.84223223 ] } },
{ "type": "Feature", "properties": { "Nom de référence": "Victor Hugo", "Nom": "Victor Hugo", "Ouverture": null, "Lignes": [ "Ligne 2" ], "Couleur": "#003CA6" }, "geometry": { "type": "Point", "coordinates": [ 2.285199, 48.869817 ] } },
{ "type": "Feature", "properties": { "Nom de référence": "Villejuif - Léo Lagrange", "Nom": "Villejuif - Léo Lagrange", "Ouverture": "1985-02-28", "Lignes": [ "Ligne 7" ], "Couleur": "#FA9ABA" }, "geometry": { "type": "Point", "coordinates": [ 2.363927364, 48.80376846 ] } },
{ "type": "Feature", "properties": { "Nom de référence": "Villejuif - Louis Aragon", "Nom": "Villejuif - Louis Aragon", "Ouverture": "1985-02-28", "Lignes": [ "Ligne 7" ], "Couleur": "#FA9ABA" }, "geometry": { "type": "Point", "coordinates": [ 2.36756444, 48.78717548 ] } },
{ "type": "Feature", "properties": { "Nom de référence": "Villejuif - Paul Vaillant-Couturier", "Nom": "Villejuif - Paul Vaillant-Couturier", "Ouverture": "1985-02-28", "Lignes": [ "Ligne 7" ], "Couleur": "#FA9ABA" }, "geometry": { "type": "Point", "coordinates": [ 2.368248403, 48.79599124 ] } },
{ "type": "Feature", "properties": { "Nom de référence": "Villiers", "Nom": "Villiers", "Ouverture": "1903-01-21", "Lignes": [ "Ligne 2", "Ligne 3" ], "Couleur": "D8D8B9" }, "geometry": { "type": "Point", "coordinates": [ 2.314867079, 48.88113039 ] } },
{ "type": "Feature", "properties": { "Nom de référence": "Volontaires", "Nom": "Volontaires", "Ouverture": "1910-11-05", "Lignes": [ "Ligne 12" ], "Couleur": "#007852" }, "geometry": { "type": "Point", "coordinates": [ 2.307504416, 48.84134253 ] } },
{ "type": "Feature", "properties": { "Nom de référence": "Voltaire", "Nom": "Voltaire", "Ouverture": "1933-12-10", "Lignes": [ "Ligne 9" ], "Couleur": "#B6BD00" }, "geometry": { "type": "Point", "coordinates": [ 2.380106449, 48.85780289 ] } },
{ "type": "Feature", "properties": { "Nom de référence": "Wagram", "Nom": "Wagram", "Ouverture": "1910-05-23", "Lignes": [ "Ligne 3" ], "Couleur": "#837902" }, "geometry": { "type": "Point", "coordinates": [ 2.303668, 48.884057 ] } }
]
}
